{
  "type": "FeatureCollection",
  "features": [
    {
      "type": "Feature",
      "properties": {
        "norad_id": 30050,
        "name": "FENGYUN 1C DEB",
        "group": "fengyun-1c-debris",
        "lat": -80.4518097317935,
        "lon": -9.3823741431381,
        "alt_km": 1014.3689397561493,
        "timestamp": "2025-12-10T11:33:53.658767+00:00",
        "meta_object_name": "FENGYUN 1C DEB",
        "meta_object_id": "1999-025PB",
        "meta_epoch": "2025-12-09T20:29:52.651968",
        "meta_mean_motion": 13.8503543,
        "meta_eccentricity": 0.0171661,
        "meta_inclination": 96.8179,
        "meta_ra_of_asc_node": 304.8257,
        "meta_arg_of_pericenter": 38.3348,
        "meta_mean_anomaly": 351.6438,
        "meta_ephemeris_type": 0,
        "meta_classification_type": "U",
        "meta_norad_cat_id": 30050,
        "meta_element_set_no": 999,
        "meta_rev_at_epoch": 95162,
        "meta_bstar": 0.002132,
        "meta_mean_motion_dot": 2.68e-05,
        "meta_mean_motion_ddot": 0,
        "tle_line1": "1 30050U 99025PB  25343.85408162  .00002680  00000+0  21320-2 0  9999",
        "tle_line2": "2 30050  96.8179 304.8257 0171661  38.3348 351.6438 13.85035430951625"
      },
      "geometry": {
        "type": "Point",
        "coordinates": [
          -9.3823741431381,
          -80.4518097317935
        ]
      }
    },
    {
      "type": "Feature",
      "properties": {
        "norad_id": 30052,
        "name": "FENGYUN 1C DEB",
        "group": "fengyun-1c-debris",
        "lat": -62.97964268553883,
        "lon": 28.879456202188074,
        "alt_km": 876.9222116752053,
        "timestamp": "2025-12-10T11:33:53.658778+00:00",
        "meta_object_name": "FENGYUN 1C DEB",
        "meta_object_id": "1999-025PD",
        "meta_epoch": "2025-12-09T13:54:31.747968",
        "meta_mean_motion": 13.72954953,
        "meta_eccentricity": 0.0288925,
        "meta_inclination": 99.2995,
        "meta_ra_of_asc_node": 9.2613,
        "meta_arg_of_pericenter": 240.5602,
        "meta_mean_anomaly": 274.657,
        "meta_ephemeris_type": 0,
        "meta_classification_type": "U",
        "meta_norad_cat_id": 30052,
        "meta_element_set_no": 999,
        "meta_rev_at_epoch": 94511,
        "meta_bstar": 0.00074322,
        "meta_mean_motion_dot": 8.8e-06,
        "meta_mean_motion_ddot": 0,
        "tle_line1": "1 30052U 99025PD  25343.57953412  .00000880  00000+0  74322-3 0  9994",
        "tle_line2": "2 30052  99.2995   9.2613 0288925 240.5602 274.6570 13.72954953945118"
      },
      "geometry": {
        "type": "Point",
        "coordinates": [
          28.879456202188074,
          -62.97964268553883
        ]
      }
    },
    {
      "type": "Feature",
      "properties": {
        "norad_id": 30053,
        "name": "FENGYUN 1C DEB",
        "group": "fengyun-1c-debris",
        "lat": -43.06321768495229,
        "lon": 165.85191421698684,
        "alt_km": 706.0478315890196,
        "timestamp": "2025-12-10T11:33:53.658788+00:00",
        "meta_object_name": "FENGYUN 1C DEB",
        "meta_object_id": "1999-025PE",
        "meta_epoch": "2025-12-09T10:12:17.108064",
        "meta_mean_motion": 13.94110335,
        "meta_eccentricity": 0.03316637,
        "meta_inclination": 98.5757,
        "meta_ra_of_asc_node": 156.7617,
        "meta_arg_of_pericenter": 347.629,
        "meta_mean_anomaly": 70.2401,
        "meta_ephemeris_type": 0,
        "meta_classification_type": "U",
        "meta_norad_cat_id": 30053,
        "meta_element_set_no": 999,
        "meta_rev_at_epoch": 94940,
        "meta_bstar": 0.002095007,
        "meta_mean_motion_dot": 4.343e-05,
        "meta_mean_motion_ddot": 0,
        "tle_line1": "1 30053U 99025PE  25343.42519801  .00004343  00000+0  20950-2 0  9994",
        "tle_line2": "2 30053  98.5757 156.7617 0331663 347.6290  70.2401 13.94110335949400"
      },
      "geometry": {
        "type": "Point",
        "coordinates": [
          165.85191421698684,
          -43.06321768495229
        ]
      }
    },
    {
      "type": "Feature",
      "properties": {
        "norad_id": 30054,
        "name": "FENGYUN 1C DEB",
        "group": "fengyun-1c-debris",
        "lat": -68.4213275900212,
        "lon": 172.09317716675676,
        "alt_km": 1107.0274011205292,
        "timestamp": "2025-12-10T11:33:53.658798+00:00",
        "meta_object_name": "FENGYUN 1C DEB",
        "meta_object_id": "1999-025PF",
        "meta_epoch": "2025-12-10T01:41:54.235104",
        "meta_mean_motion": 13.69859991,
        "meta_eccentricity": 0.0275962,
        "meta_inclination": 99.3718,
        "meta_ra_of_asc_node": 16.3731,
        "meta_arg_of_pericenter": 12.2008,
        "meta_mean_anomaly": 14.6911,
        "meta_ephemeris_type": 0,
        "meta_classification_type": "U",
        "meta_norad_cat_id": 30054,
        "meta_element_set_no": 999,
        "meta_rev_at_epoch": 94312,
        "meta_bstar": 0.00073972,
        "meta_mean_motion_dot": 8.04e-06,
        "meta_mean_motion_ddot": 0,
        "tle_line1": "1 30054U 99025PF  25344.07076661  .00000804  00000+0  73972-3 0  9990",
        "tle_line2": "2 30054  99.3718  16.3731 0275962  12.2008  14.6911 13.69859991943127"
      },
      "geometry": {
        "type": "Point",
        "coordinates": [
          172.09317716675676,
          -68.4213275900212
        ]
      }
    },
    {
      "type": "Feature",
      "properties": {
        "norad_id": 30056,
        "name": "FENGYUN 1C DEB",
        "group": "fengyun-1c-debris",
        "lat": 19.79167555906313,
        "lon": -6.5661541480346735,
        "alt_km": 860.6328253629799,
        "timestamp": "2025-12-10T11:33:53.658808+00:00",
        "meta_object_name": "FENGYUN 1C DEB",
        "meta_object_id": "1999-025PH",
        "meta_epoch": "2025-12-10T00:16:42.786048",
        "meta_mean_motion": 13.73954273,
        "meta_eccentricity": 0.0299866,
        "meta_inclination": 98.3225,
        "meta_ra_of_asc_node": 170.0041,
        "meta_arg_of_pericenter": 218.1883,
        "meta_mean_anomaly": 139.7684,
        "meta_ephemeris_type": 0,
        "meta_classification_type": "U",
        "meta_norad_cat_id": 30056,
        "meta_element_set_no": 999,
        "meta_rev_at_epoch": 93938,
        "meta_bstar": 0.0040478,
        "meta_mean_motion_dot": 5.22e-05,
        "meta_mean_motion_ddot": 0,
        "tle_line1": "1 30056U 99025PH  25344.01160632  .00005220  00000+0  40478-2 0  9999",
        "tle_line2": "2 30056  98.3225 170.0041 0299866 218.1883 139.7684 13.73954273939383"
      },
      "geometry": {
        "type": "Point",
        "coordinates": [
          -6.5661541480346735,
          19.79167555906313
        ]
      }
    },
    {
      "type": "Feature",
      "properties": {
        "norad_id": 30057,
        "name": "FENGYUN 1C DEB",
        "group": "fengyun-1c-debris",
        "lat": 59.50642644514101,
        "lon": 38.033672780915694,
        "alt_km": 1039.7057373768985,
        "timestamp": "2025-12-10T11:33:53.658818+00:00",
        "meta_object_name": "FENGYUN 1C DEB",
        "meta_object_id": "1999-025PJ",
        "meta_epoch": "2025-12-10T04:28:37.118208",
        "meta_mean_motion": 13.57112823,
        "meta_eccentricity": 0.0292699,
        "meta_inclination": 98.883,
        "meta_ra_of_asc_node": 53.1667,
        "meta_arg_of_pericenter": 153.024,
        "meta_mean_anomaly": 268.9862,
        "meta_ephemeris_type": 0,
        "meta_classification_type": "U",
        "meta_norad_cat_id": 30057,
        "meta_element_set_no": 999,
        "meta_rev_at_epoch": 93201,
        "meta_bstar": 0.0019063,
        "meta_mean_motion_dot": 1.756e-05,
        "meta_mean_motion_ddot": 0,
        "tle_line1": "1 30057U 99025PJ  25344.18654072  .00001756  00000+0  19063-2 0  9990",
        "tle_line2": "2 30057  98.8830  53.1667 0292699 153.0240 268.9862 13.57112823932012"
      },
      "geometry": {
        "type": "Point",
        "coordinates": [
          38.033672780915694,
          59.50642644514101
        ]
      }
    },
    {
      "type": "Feature",
      "properties": {
        "norad_id": 30058,
        "name": "FENGYUN 1C DEB",
        "group": "fengyun-1c-debris",
        "lat": -24.421933792152288,
        "lon": 164.37117283957807,
        "alt_km": 918.8293167556503,
        "timestamp": "2025-12-10T11:33:53.658828+00:00",
        "meta_object_name": "FENGYUN 1C DEB",
        "meta_object_id": "1999-025PK",
        "meta_epoch": "2025-12-08T23:14:05.784000",
        "meta_mean_motion": 13.48231633,
        "meta_eccentricity": 0.0315694,
        "meta_inclination": 99.6493,
        "meta_ra_of_asc_node": 347.3377,
        "meta_arg_of_pericenter": 161.7381,
        "meta_mean_anomaly": 256.931,
        "meta_ephemeris_type": 0,
        "meta_classification_type": "U",
        "meta_norad_cat_id": 30058,
        "meta_element_set_no": 999,
        "meta_rev_at_epoch": 92797,
        "meta_bstar": 0.00072673,
        "meta_mean_motion_dot": 5.69e-06,
        "meta_mean_motion_ddot": 0,
        "tle_line1": "1 30058U 99025PK  25342.96812250  .00000569  00000+0  72673-3 0  9997",
        "tle_line2": "2 30058  99.6493 347.3377 0315694 161.7381 256.9310 13.48231633927971"
      },
      "geometry": {
        "type": "Point",
        "coordinates": [
          164.37117283957807,
          -24.421933792152288
        ]
      }
    }
  ]
}